0 COSMOS 2251 DEB
1 37335U 93036BLB 13284.04917278  .00003277  00000-0  12220-2 0  1695
2 37335 074.0195 176.1951 0058379 228.4489 131.2273 14.31399052165905
0 COSMOS 2251 DEB
1 37335U 93036BLB 13291.31758933  .00003342  00000-0  12453-2 0  1707
2 37335 074.0203 162.9439 0057985 205.4455 154.4556 14.31449497166944
0 COSMOS 2251 DEB
1 37335U 93036BLB 13295.30112651  .00004050  00000-0  15070-2 0  1717
2 37335 074.0148 155.6521 0056434 209.4762 150.5979 14.31491880167519
